{
    "links": {
        "self": "http://www.neowsapp.com/rest/v1/neo/3780737?api_key=iIulBulltgU6a56xZRHN4H3l9WmuAYTsLGpBGhQ2"
    },
    "id": "3780737",
    "neo_reference_id": "3780737",
    "name": "(2017 QS1)",
    "designation": "2017 QS1",
    "nasa_jpl_url": "http://ssd.jpl.nasa.gov/sbdb.cgi?sstr=3780737",
    "absolute_magnitude_h": 26.4,
    "estimated_diameter": {
        "kilometers": {
            "estimated_diameter_min": 0.0139493823,
            "estimated_diameter_max": 0.0311917671
        },
        "meters": {
            "estimated_diameter_min": 13.9493822934,
            "estimated_diameter_max": 31.1917670523
        },
        "miles": {
            "estimated_diameter_min": 0.0086677416,
            "estimated_diameter_max": 0.0193816595
        },
        "feet": {
            "estimated_diameter_min": 45.7656914036,
            "estimated_diameter_max": 102.3351970157
        }
    },
    "is_potentially_hazardous_asteroid": false,
    "close_approach_data": [
        {
            "close_approach_date": "2017-08-08",
            "close_approach_date_full": "2017-Aug-08 06:00",
            "epoch_date_close_approach": 1502172000000,
            "relative_velocity": {
                "kilometers_per_second": "10.8278693069",
                "kilometers_per_hour": "38980.3295048519",
                "miles_per_hour": "24220.860852612"
            },
            "miss_distance": {
                "astronomical": "0.0241408531",
                "lunar": "9.3907918559",
                "kilometers": "3611420.203742897",
                "miles": "2244032.4574380986"
            },
            "orbiting_body": "Earth"
        }
    ],
    "orbital_data": {
        "orbit_id": "3",
        "orbit_determination_date": "2019-07-17 06:12:06",
        "first_observation_date": "2017-08-15",
        "last_observation_date": "2017-08-20",
        "data_arc_in_days": 5,
        "observations_used": 16,
        "orbit_uncertainty": "9",
        "minimum_orbit_intersection": ".00763695",
        "jupiter_tisserand_invariant": "3.794",
        "epoch_osculation": "2457983.5",
        "eccentricity": ".5060319179638539",
        "semi_major_axis": "1.888292900308061",
        "inclination": "1.424278803448826",
        "ascending_node_longitude": "149.8601722568617",
        "orbital_period": "947.7689295929101",
        "perihelion_distance": ".9327564222876445",
        "perihelion_argument": "121.6935806869202",
        "aphelion_distance": "2.843829378328478",
        "perihelion_time": "2457939.628341205695",
        "mean_anomaly": "16.66418540723172",
        "mean_motion": ".3798394194612697",
        "equinox": "J2000",
        "orbit_class": {
            "orbit_class_type": "APO",
            "orbit_class_description": "Near-Earth asteroid orbits which cross the Earth’s orbit similar to that of 1862 Apollo",
            "orbit_class_range": "a (semi-major axis) > 1.0 AU; q (perihelion) < 1.017 AU"
        }
    },
    "is_sentry_object": false
}